CENTISPACE-1 GROUP 05 O*
1 69636U 26138J   26178.30771418 -.00000319  00000+0 -83794-4 0  9994
2 69636  55.1414 243.7678 0008353 301.7319  58.2840 14.15850343  1420
VICTUS HAZE PUMA        
1 69646U 26142A   26178.28287225  .00004152  00000+0  19088-3 0  9996
2 69646  97.4481  75.7918 0021046 291.2482  68.6505 15.20723634  1200
HOKUSHIN-1              
1 69648U 98067YH  26177.92573661  .00023930  00000+0  42215-3 0  9998
2 69648  51.6326 251.8488 0006229 258.3282 101.7008 15.50242635  1161
STARLINK-37656          
1 69649U 26143A   26178.25002315 -.02621474  18154-2 -84360-2 0  9994
2 69649  97.2844 221.5554 0001324  57.0286  14.5406 15.91111070  2088
STARLINK-37646          
1 69650U 26143B   26178.25002315 -.02760079  20698-2 -78266-2 0  9995
2 69650  97.2844 221.5571 0001430  63.3886  12.5225 15.93562278  2082
STARLINK-37749          
1 69651U 26143C   26178.25002315 -.01110312  37323-3 -30421-2 0  9999
2 69651  97.2843 221.5592 0001044  73.5543   7.0959 15.94054640  2082
STARLINK-37819          
1 69652U 26143D   26178.25002315 -.02677703  19198-2 -80950-2 0  9994
2 69652  97.2845 221.5579 0001277  59.0866  19.0576 15.92331581  2083
STARLINK-37729          
1 69653U 26143E   26178.25002315 -.02724167  20220-2 -76262-2 0  9991
2 69653  97.2846 221.5595 0001552  47.2514  34.2976 15.93807010  2087
STARLINK-37838          
1 69654U 26143F   26178.25002315 -.01984640  10782-2 -59839-2 0  9998
2 69654  97.2845 221.5588 0001344  56.1378  24.0196 15.92333626  2082
STARLINK-37884          
1 69655U 26143G   26178.25002315 -.01777008  88659-3 -50569-2 0  9997
2 69655  97.2843 221.5610 0001181  65.8481  19.0112 15.93423786  2088
STARLINK-37876          
1 69656U 26143H   26178.25002315 -.02598233  18606-2 -69218-2 0  9995
2 69656  97.2844 221.5615 0001496  47.7360  38.8460 15.94744893  1988
STARLINK-37784          
1 69657U 26143J   26178.25002315 -.02700763  20029-2 -73085-2 0  9998
2 69657  97.2846 221.5634 0001428  68.4170  23.0062 15.94450526  1987
STARLINK-37851          
1 69658U 26143K   26178.25002315 -.01722533  84046-3 -47875-2 0  9995
2 69658  97.2842 221.5626 0001213  61.2773  28.8135 15.93867869  1971
STARLINK-37229          
1 69659U 26143L   26178.25002315 -.02694382  19461-2 -81017-2 0  9991
2 69659  97.2843 221.5619 0001390  64.2722  24.8350 15.92435773  2024
STARLINK-37556          
1 69660U 26143M   26178.25002315 -.02728894  20169-2 -78417-2 0  9996
2 69660  97.2843 221.5638 0001313  60.9146  31.1506 15.93308757  2021
STARLINK-37867          
1 69661U 26143N   26178.25002315 -.01704491  82788-3 -46298-2 0  9991
2 69661  97.2840 221.5646 0001083  68.0006  26.9752 15.94302739  1980
STARLINK-37852          
1 69662U 26143P   26178.25002315 -.02647045  18958-2 -76464-2 0  9999
2 69662  97.2838 221.5647 0001326  63.8293  31.3467 15.93207810  1986
STARLINK-37554          
1 69663U 26143Q   26178.25002315 -.02064673  11887-2 -55663-2 0  9992
2 69663  97.2838 221.5663 0001083  76.0457  23.2614 15.94487588  2026
STARLINK-37830          
1 69664U 26143R   26178.25002315 -.02676481  19429-2 -76453-2 0  9999
2 69664  97.2838 221.5658 0001262  62.3192  35.9878 15.93422906  1971
STARLINK-37837          
1 69665U 26143S   26178.25002315 -.02068645  11934-2 -55693-2 0  9993
2 69665  97.2838 221.5672 0001150  70.5631  31.5417 15.94513976  1984
STARLINK-37943          
1 69666U 26143T   26178.25002315 -.02661728  19573-2 -70133-2 0  9998
2 69666  97.2838 221.5684 0001600  60.7890  42.9059 15.94952478  1988
STARLINK-37941          
1 69667U 26143U   26178.25002315 -.02553994  18027-2 -67317-2 0  9997
2 69667  97.2838 221.5680 0001388  61.8781  40.9556 15.94945140  1987
STARLINK-37930          
1 69668U 26143V   26178.25002315 -.02108764  12390-2 -56498-2 0  9994
2 69668  97.2840 221.5696 0001194  45.8084  60.4806 15.94609643  1970
STARLINK-37945          
1 69669U 26143W   26178.25002315 -.02745045  21104-2 -68335-2 0  9990
2 69669  97.2840 221.5700 0001589  63.7192  44.2358 15.96011161  1981
STARLINK-37948          
1 69670U 26143X   26178.25002315 -.00642980  13791-3 -15738-2 0  9997
2 69670  97.2839 221.5720 0000988  68.0127  44.5137 15.96108590  1982
STARLINK-37949          
1 69671U 26143Y   26178.25002315 -.02066327  12130-2 -50882-2 0  9999
2 69671  97.2838 221.5728 0001226  55.4582  59.1660 15.96185315  1984
STARLINK-37946          
1 69672U 26143Z   26178.25002315 -.00713043  16455-3 -18968-2 0  9996
2 69672  97.2840 221.5715 0000911  77.7977  33.3139 15.94559820  1988
TJS-26A                 
1 69674U 26144A   26174.32980920  .00009630 -16661-6  31526-3 0  9997
2 69674  19.5157 324.7456 7314561 179.7910 181.1077  2.27958502    21
