OBJECT_NAME,OBJECT_ID,EPOCH,MEAN_MOTION,ECCENTRICITY,INCLINATION,RA_OF_ASC_NODE,ARG_OF_PERICENTER,MEAN_ANOMALY,EPHEMERIS_TYPE,CLASSIFICATION_TYPE,NORAD_CAT_ID,ELEMENT_SET_NO,REV_AT_EPOCH,BSTAR,MEAN_MOTION_DOT,MEAN_MOTION_DDOT
CENTISPACE-1 GROUP 05 OBJECT J,2026-138J,2026-06-27T07:23:06.505152,14.15850343,.00083532,55.1414,243.7678,301.7319,58.2840,0,U,69636,999,142,-.83794103E-4,-.319E-5,0
VICTUS HAZE PUMA,2026-142A,2026-06-27T06:47:20.162400,15.20723634,.0021046,97.4481,75.7918,291.2482,68.6505,0,U,69646,999,120,.1908813E-3,.4152E-4,0
HOKUSHIN-1,1998-067YH,2026-06-26T22:13:03.643104,15.50242635,.00062292,51.6326,251.8488,258.3282,101.7008,0,U,69648,999,116,.42215392E-3,.2393E-3,0
STARLINK-37656,2026-143A,2026-06-27T06:00:02.000160,15.91111070,.00013245,97.2844,221.5554,57.0286,14.5406,0,U,69649,999,208,-.84359724E-2,-.2621474E-1,.18153852E-2
STARLINK-37646,2026-143B,2026-06-27T06:00:02.000160,15.93562278,.00014302,97.2844,221.5571,63.3886,12.5225,0,U,69650,999,208,-.78266296E-2,-.2760079E-1,.20698072E-2
STARLINK-37749,2026-143C,2026-06-27T06:00:02.000160,15.94054640,.00010446,97.2843,221.5592,73.5543,7.0959,0,U,69651,999,208,-.30420548E-2,-.1110312E-1,.37322748E-3
STARLINK-37819,2026-143D,2026-06-27T06:00:02.000160,15.92331581,.00012772,97.2845,221.5579,59.0866,19.0576,0,U,69652,999,208,-.80949967E-2,-.2677703E-1,.19198404E-2
STARLINK-37729,2026-143E,2026-06-27T06:00:02.000160,15.93807010,.00015525,97.2846,221.5595,47.2514,34.2976,0,U,69653,999,208,-.76261655E-2,-.2724167E-1,.20220425E-2
STARLINK-37838,2026-143F,2026-06-27T06:00:02.000160,15.92333626,.00013449,97.2845,221.5588,56.1378,24.0196,0,U,69654,999,208,-.59838536E-2,-.198464E-1,.10782264E-2
STARLINK-37884,2026-143G,2026-06-27T06:00:02.000160,15.93423786,.00011811,97.2843,221.5610,65.8481,19.0112,0,U,69655,999,208,-.50568907E-2,-.1777008E-1,.88659352E-3
STARLINK-37876,2026-143H,2026-06-27T06:00:02.000160,15.94744893,.00014966,97.2844,221.5615,47.7360,38.8460,0,U,69656,999,198,-.69218314E-2,-.2598233E-1,.18606468E-2
STARLINK-37784,2026-143J,2026-06-27T06:00:02.000160,15.94450526,.00014287,97.2846,221.5634,68.4170,23.0062,0,U,69657,999,198,-.73085068E-2,-.2700763E-1,.2002944E-2
STARLINK-37851,2026-143K,2026-06-27T06:00:02.000160,15.93867869,.00012131,97.2842,221.5626,61.2773,28.8135,0,U,69658,999,197,-.47875411E-2,-.1722533E-1,.84046274E-3
STARLINK-37229,2026-143L,2026-06-27T06:00:02.000160,15.92435773,.00013904,97.2843,221.5619,64.2722,24.8350,0,U,69659,999,202,-.81016782E-2,-.2694382E-1,.19460669E-2
STARLINK-37556,2026-143M,2026-06-27T06:00:02.000160,15.93308757,.00013131,97.2843,221.5638,60.9146,31.1506,0,U,69660,999,202,-.78417039E-2,-.2728894E-1,.20169343E-2
STARLINK-37867,2026-143N,2026-06-27T06:00:02.000160,15.94302739,.00010832,97.2840,221.5646,68.0006,26.9752,0,U,69661,999,198,-.46298229E-2,-.1704491E-1,.82787887E-3
STARLINK-37852,2026-143P,2026-06-27T06:00:02.000160,15.93207810,.00013267,97.2838,221.5647,63.8293,31.3467,0,U,69662,999,198,-.76464037E-2,-.2647045E-1,.18957554E-2
STARLINK-37554,2026-143Q,2026-06-27T06:00:02.000160,15.94487588,.00010839,97.2838,221.5663,76.0457,23.2614,0,U,69663,999,202,-.55662899E-2,-.2064673E-1,.11887078E-2
STARLINK-37830,2026-143R,2026-06-27T06:00:02.000160,15.93422906,.00012622,97.2838,221.5658,62.3192,35.9878,0,U,69664,999,197,-.76452972E-2,-.2676481E-1,.19428849E-2
STARLINK-37837,2026-143S,2026-06-27T06:00:02.000160,15.94513976,.00011505,97.2838,221.5672,70.5631,31.5417,0,U,69665,999,198,-.55693056E-2,-.2068645E-1,.11933936E-2
STARLINK-37943,2026-143T,2026-06-27T06:00:02.000160,15.94952478,.00016004,97.2838,221.5684,60.7890,42.9059,0,U,69666,999,198,-.70132728E-2,-.2661728E-1,.19573332E-2
STARLINK-37941,2026-143U,2026-06-27T06:00:02.000160,15.94945140,.00013885,97.2838,221.5680,61.8781,40.9556,0,U,69667,999,198,-.67317392E-2,-.2553994E-1,.18026705E-2
STARLINK-37930,2026-143V,2026-06-27T06:00:02.000160,15.94609643,.00011941,97.2840,221.5696,45.8084,60.4806,0,U,69668,999,197,-.56498173E-2,-.2108764E-1,.12390484E-2
STARLINK-37945,2026-143W,2026-06-27T06:00:02.000160,15.96011161,.00015895,97.2840,221.5700,63.7192,44.2358,0,U,69669,999,198,-.68334704E-2,-.2745045E-1,.2110379E-2
STARLINK-37948,2026-143X,2026-06-27T06:00:02.000160,15.96108590,.00009888,97.2839,221.5720,68.0127,44.5137,0,U,69670,999,198,-.15737757E-2,-.64298E-2,.13790918E-3
STARLINK-37949,2026-143Y,2026-06-27T06:00:02.000160,15.96185315,.00012268,97.2838,221.5728,55.4582,59.1660,0,U,69671,999,198,-.50882465E-2,-.2066327E-1,.12130447E-2
STARLINK-37946,2026-143Z,2026-06-27T06:00:02.000160,15.94559820,.00009115,97.2840,221.5715,77.7977,33.3139,0,U,69672,999,198,-.18968019E-2,-.713043E-2,.16454747E-3
TJS-26A,2026-144A,2026-06-23T07:54:55.514880,2.27958502,.73145613,19.5157,324.7456,179.7910,181.1077,0,U,69674,999,2,.31526459E-3,.963E-4,-.166614E-6
